{
    "links": {
        "self": "http://www.neowsapp.com/rest/v1/neo/3435540?api_key=iIulBulltgU6a56xZRHN4H3l9WmuAYTsLGpBGhQ2"
    },
    "id": "3435540",
    "neo_reference_id": "3435540",
    "name": "(2008 UB202)",
    "designation": "2008 UB202",
    "nasa_jpl_url": "http://ssd.jpl.nasa.gov/sbdb.cgi?sstr=3435540",
    "absolute_magnitude_h": 23.2,
    "estimated_diameter": {
        "kilometers": {
            "estimated_diameter_min": 0.0608912622,
            "estimated_diameter_max": 0.1361570015
        },
        "meters": {
            "estimated_diameter_min": 60.8912622106,
            "estimated_diameter_max": 136.1570015386
        },
        "miles": {
            "estimated_diameter_min": 0.0378360645,
            "estimated_diameter_max": 0.0846040122
        },
        "feet": {
            "estimated_diameter_min": 199.7744887109,
            "estimated_diameter_max": 446.7093369279
        }
    },
    "is_potentially_hazardous_asteroid": false,
    "close_approach_data": [
        {
            "close_approach_date": "2008-10-17",
            "close_approach_date_full": "2008-Oct-17 08:39",
            "epoch_date_close_approach": 1224232740000,
            "relative_velocity": {
                "kilometers_per_second": "4.040636236",
                "kilometers_per_hour": "14546.2904494249",
                "miles_per_hour": "9038.4991961996"
            },
            "miss_distance": {
                "astronomical": "0.2892047268",
                "lunar": "112.5006387252",
                "kilometers": "43264411.123211916",
                "miles": "26883258.4787038008"
            },
            "orbiting_body": "Earth"
        }
    ],
    "orbital_data": {
        "orbit_id": "7",
        "orbit_determination_date": "2017-04-06 09:02:20",
        "first_observation_date": "2008-10-31",
        "last_observation_date": "2008-11-07",
        "data_arc_in_days": 7,
        "observations_used": 21,
        "orbit_uncertainty": "8",
        "minimum_orbit_intersection": ".288899",
        "jupiter_tisserand_invariant": "3.286",
        "epoch_osculation": "2454772.5",
        "eccentricity": ".4865875269025959",
        "semi_major_axis": "2.497520419244804",
        "inclination": "6.555787733603899",
        "ascending_node_longitude": "223.7271203707542",
        "orbital_period": "1441.657176803334",
        "perihelion_distance": "1.28225813505574",
        "perihelion_argument": "160.7220003069424",
        "aphelion_distance": "3.712782703433867",
        "perihelion_time": "2454757.547255840654",
        "mean_anomaly": "3.733889016042327",
        "mean_motion": ".2497126264083448",
        "equinox": "J2000",
        "orbit_class": {
            "orbit_class_type": "AMO",
            "orbit_class_description": "Near-Earth asteroid orbits similar to that of 1221 Amor",
            "orbit_class_range": "1.017 AU < q (perihelion) < 1.3 AU"
        }
    },
    "is_sentry_object": false
}